[{"OBJECT_NAME":"COSMOS 2572","OBJECT_ID":"2023-182A","EPOCH":"2026-03-09T13:27:58.906080","MEAN_MOTION":15.90100186,"ECCENTRICITY":0.00176756,"INCLINATION":96.6789,"RA_OF_ASC_NODE":174.2379,"ARG_OF_PERICENTER":207.9935,"MEAN_ANOMALY":152.0391,"EPHEMERIS_TYPE":0,"CLASSIFICATION_TYPE":"U","NORAD_CAT_ID":58435,"ELEMENT_SET_NO":999,"REV_AT_EPOCH":13262,"BSTAR":0.00022334342,"MEAN_MOTION_DOT":0.00067086,"MEAN_MOTION_DDOT":3.470467e-6},{"OBJECT_NAME":"STARLINK-36598","OBJECT_ID":"2026-033Z","EPOCH":"2026-03-09T22:19:43.771872","MEAN_MOTION":15.82123576,"ECCENTRICITY":0.00019759,"INCLINATION":42.9981,"RA_OF_ASC_NODE":269.815,"ARG_OF_PERICENTER":280.8839,"MEAN_ANOMALY":79.181,"EPHEMERIS_TYPE":0,"CLASSIFICATION_TYPE":"U","NORAD_CAT_ID":67844,"ELEMENT_SET_NO":999,"REV_AT_EPOCH":466,"BSTAR":0.001509169,"MEAN_MOTION_DOT":0.00331375,"MEAN_MOTION_DDOT":0}]
